start=new Date('2022-10-30T00:00:00.000Z').valueOf();
sats=[{"GP_ID":"216454129","APOAPSIS":"351.166","TLE_LINE2":"2 53856  53.2150  56.0708 0002087  24.5159 208.7978 15.73199347  7023","MEAN_ANOMALY":"208.7978","EPOCH":"2022-10-30T00:00:00.999648","SITE":"AFETR","EPHEMERIS_TYPE":"0","SEMIMAJOR_AXIS":"6727.897","RA_OF_ASC_NODE":"56.0708","ELEMENT_SET_NO":"999","TIME_SYSTEM":"UTC","CLASSIFICATION_TYPE":"U","RCS_SIZE":"LARGE","INCLINATION":"53.2150","OBJECT_ID":"2022-114AQ","BSTAR":"-0.00005540000000","PERIAPSIS":"348.358","ECCENTRICITY":"0.00020870","TLE_LINE1":"1 53856U 22114AQ  22303.00001157 -.00008389  00000-0 -55400-4 0  9999","DECAY_DATE":null,"COUNTRY_CODE":"US","MEAN_MOTION_DOT":"-0.00008389","OBJECT_NAME":"STARLINK-4795","MEAN_MOTION_DDOT":"0.0000000000000","PERIOD":"91.533","ARG_OF_PERICENTER":"24.5159","CENTER_NAME":"EARTH","MEAN_ELEMENT_THEORY":"SGP4","REV_AT_EPOCH":"702","NORAD_CAT_ID":"53856","REF_FRAME":"TEME","LAUNCH_DATE":"2022-09-19","MEAN_MOTION":"15.73199347","OBJECT_TYPE":"PAYLOAD","FILE":"3637826"},{"ECCENTRICITY":"0.00021560","TLE_LINE1":"1 53857U 22114AR  22303.00001157 -.00035458  00000-0 -24874-3 0  9997","DECAY_DATE":null,"COUNTRY_CODE":"US","MEAN_MOTION_DOT":"-0.00035458","OBJECT_NAME":"STARLINK-4809","MEAN_MOTION_DDOT":"0.0000000000000","TIME_SYSTEM":"UTC","CLASSIFICATION_TYPE":"U","RCS_SIZE":"LARGE","INCLINATION":"53.2148","OBJECT_ID":"2022-114AR","BSTAR":"-0.00024874000000","PERIAPSIS":"348.174","SITE":"AFETR","EPHEMERIS_TYPE":"0","SEMIMAJOR_AXIS":"6727.759","RA_OF_ASC_NODE":"56.0795","ELEMENT_SET_NO":"999","GP_ID":"216454408","APOAPSIS":"351.075","TLE_LINE2":"2 53857  53.2148  56.0795 0002156  32.5125 196.1184 15.73247671  7029","EPOCH":"2022-10-30T00:00:00.999648","MEAN_ANOMALY":"196.1184","OBJECT_TYPE":"PAYLOAD","FILE":"3637830","REF_FRAME":"TEME","LAUNCH_DATE":"2022-09-19","MEAN_MOTION":"15.73247671","MEAN_ELEMENT_THEORY":"SGP4","REV_AT_EPOCH":"702","NORAD_CAT_ID":"53857","PERIOD":"91.530","ARG_OF_PERICENTER":"32.5125","CENTER_NAME":"EARTH"},{"OBJECT_TYPE":"PAYLOAD","FILE":"3637827","MEAN_MOTION":"15.73260627","LAUNCH_DATE":"2022-09-19","REF_FRAME":"TEME","REV_AT_EPOCH":"702","NORAD_CAT_ID":"53858","MEAN_ELEMENT_THEORY":"SGP4","ARG_OF_PERICENTER":"23.0035","CENTER_NAME":"EARTH","PERIOD":"91.530","OBJECT_NAME":"STARLINK-4798","MEAN_MOTION_DOT":"-0.00036277","MEAN_MOTION_DDOT":"0.0000000000000","TLE_LINE1":"1 53858U 22114AS  22303.00001157 -.00036277  00000-0 -25447-3 0  9995","ECCENTRICITY":"0.00020190","DECAY_DATE":null,"COUNTRY_CODE":"US","INCLINATION":"53.2139","RCS_SIZE":"LARGE","PERIAPSIS":"348.229","OBJECT_ID":"2022-114AS","BSTAR":"-0.00025447000000","TIME_SYSTEM":"UTC","CLASSIFICATION_TYPE":"U","RA_OF_ASC_NODE":"56.0770","SEMIMAJOR_AXIS":"6727.722","ELEMENT_SET_NO":"999","SITE":"AFETR","EPHEMERIS_TYPE":"0","APOAPSIS":"350.946","EPOCH":"2022-10-30T00:00:00.999648","MEAN_ANOMALY":"207.9873","TLE_LINE2":"2 53858  53.2139  56.0770 0002019  23.0035 207.9873 15.73260627  7028","GP_ID":"216454414"},{"ELEMENT_SET_NO":"999","SEMIMAJOR_AXIS":"6727.695","RA_OF_ASC_NODE":"56.0768","EPHEMERIS_TYPE":"0","SITE":"AFETR","TLE_LINE2":"2 53859  53.2151  56.0768 0002213  24.6693 205.1621 15.73270178  7026","EPOCH":"2022-10-30T00:00:00.999648","MEAN_ANOMALY":"205.1621","APOAPSIS":"351.049","GP_ID":"216454161","MEAN_MOTION_DDOT":"0.0000000000000","MEAN_MOTION_DOT":"-0.00048036","OBJECT_NAME":"STARLINK-4790","DECAY_DATE":null,"COUNTRY_CODE":"US","ECCENTRICITY":"0.00022130","TLE_LINE1":"1 53859U 22114AT  22303.00001157 -.00048036  00000-0 -33872-3 0  9993","OBJECT_ID":"2022-114AT","BSTAR":"-0.00033872000000","PERIAPSIS":"348.071","RCS_SIZE":"LARGE","INCLINATION":"53.2151","CLASSIFICATION_TYPE":"U","TIME_SYSTEM":"UTC","NORAD_CAT_ID":"53859","REV_AT_EPOCH":"702","MEAN_ELEMENT_THEORY":"SGP4","CENTER_NAME":"EARTH","ARG_OF_PERICENTER":"24.6693","PERIOD":"91.529","FILE":"3637827","OBJECT_TYPE":"PAYLOAD","LAUNCH_DATE":"2022-09-19","MEAN_MOTION":"15.73270178","REF_FRAME":"TEME"},{"SITE":"AFETR","EPHEMERIS_TYPE":"0","RA_OF_ASC_NODE":"56.0720","SEMIMAJOR_AXIS":"6727.654","ELEMENT_SET_NO":"999","GP_ID":"216454421","APOAPSIS":"350.884","MEAN_ANOMALY":"212.2412","EPOCH":"2022-10-30T00:00:00.999648","TLE_LINE2":"2 53860  53.2150  56.0720 0002029  20.5913 212.2412 15.73284508  7029","TLE_LINE1":"1 53860U 22114AU  22303.00001157 -.00106628  00000-0 -76211-3 0  9991","ECCENTRICITY":"0.00020290","DECAY_DATE":null,"COUNTRY_CODE":"US","OBJECT_NAME":"STARLINK-4799","MEAN_MOTION_DOT":"-0.00106628","MEAN_MOTION_DDOT":"0.0000000000000","TIME_SYSTEM":"UTC","CLASSIFICATION_TYPE":"U","INCLINATION":"53.2150","RCS_SIZE":"LARGE","PERIAPSIS":"348.154","BSTAR":"-0.00076211000000","OBJECT_ID":"2022-114AU","MEAN_ELEMENT_THEORY":"SGP4","REV_AT_EPOCH":"702","NORAD_CAT_ID":"53860","PERIOD":"91.528","ARG_OF_PERICENTER":"20.5913","CENTER_NAME":"EARTH","OBJECT_TYPE":"PAYLOAD","FILE":"3637827","REF_FRAME":"TEME","MEAN_MOTION":"15.73284508","LAUNCH_DATE":"2022-09-19"},{"SITE":"AFETR","EPHEMERIS_TYPE":"0","SEMIMAJOR_AXIS":"6727.654","RA_OF_ASC_NODE":"56.0728","ELEMENT_SET_NO":"999","GP_ID":"216454420","APOAPSIS":"350.927","MEAN_ANOMALY":"205.6419","EPOCH":"2022-10-30T00:00:00.999648","TLE_LINE2":"2 53861  53.2151  56.0728 0002093  25.9888 205.6419 15.73284569  7020","TLE_LINE1":"1 53861U 22114AV  22303.00001157 -.00080908  00000-0 -57544-3 0  9992","ECCENTRICITY":"0.00020930","COUNTRY_CODE":"US","DECAY_DATE":null,"OBJECT_NAME":"STARLINK-4781","MEAN_MOTION_DOT":"-0.00080908","MEAN_MOTION_DDOT":"0.0000000000000","TIME_SYSTEM":"UTC","CLASSIFICATION_TYPE":"U","INCLINATION":"53.2151","RCS_SIZE":"LARGE","PERIAPSIS":"348.111","BSTAR":"-0.00057544000000","OBJECT_ID":"2022-114AV","MEAN_ELEMENT_THEORY":"SGP4","REV_AT_EPOCH":"702","NORAD_CAT_ID":"53861","PERIOD":"91.528","ARG_OF_PERICENTER":"25.9888","CENTER_NAME":"EARTH","OBJECT_TYPE":"PAYLOAD","FILE":"3637827","REF_FRAME":"TEME","MEAN_MOTION":"15.73284569","LAUNCH_DATE":"2022-09-19"},{"PERIOD":"91.529","ARG_OF_PERICENTER":"21.9827","CENTER_NAME":"EARTH","MEAN_ELEMENT_THEORY":"SGP4","REV_AT_EPOCH":"702","NORAD_CAT_ID":"53862","REF_FRAME":"TEME","LAUNCH_DATE":"2022-09-19","MEAN_MOTION":"15.73277669","OBJECT_TYPE":"PAYLOAD","FILE":"3637827","GP_ID":"216454150","APOAPSIS":"351.067","TLE_LINE2":"2 53862  53.2152  56.0696 0002271  21.9827 212.0510 15.73277669  7020","EPOCH":"2022-10-30T00:00:00.999648","MEAN_ANOMALY":"212.0510","SITE":"AFETR","EPHEMERIS_TYPE":"0","RA_OF_ASC_NODE":"56.0696","SEMIMAJOR_AXIS":"6727.674","ELEMENT_SET_NO":"999","TIME_SYSTEM":"UTC","CLASSIFICATION_TYPE":"U","RCS_SIZE":"LARGE","INCLINATION":"53.2152","BSTAR":"-0.00054607000000","OBJECT_ID":"2022-114AW","PERIAPSIS":"348.011","ECCENTRICITY":"0.00022710","TLE_LINE1":"1 53862U 22114AW  22303.00001157 -.00076827  00000-0 -54607-3 0  9995","COUNTRY_CODE":"US","DECAY_DATE":null,"MEAN_MOTION_DOT":"-0.00076827","OBJECT_NAME":"STARLINK-4792","MEAN_MOTION_DDOT":"0.0000000000000"},{"TLE_LINE2":"2 53863  53.2151  56.0714 0002390  17.4609 214.7543 15.73274377  7029","EPOCH":"2022-10-30T00:00:00.999648","MEAN_ANOMALY":"214.7543","APOAPSIS":"351.156","GP_ID":"216454167","ELEMENT_SET_NO":"999","SEMIMAJOR_AXIS":"6727.683","RA_OF_ASC_NODE":"56.0714","EPHEMERIS_TYPE":"0","SITE":"AFETR","BSTAR":"-0.00037018000000","OBJECT_ID":"2022-114AX","PERIAPSIS":"347.940","RCS_SIZE":"LARGE","INCLINATION":"53.2151","CLASSIFICATION_TYPE":"U","TIME_SYSTEM":"UTC","MEAN_MOTION_DDOT":"0.0000000000000","MEAN_MOTION_DOT":"-0.00052424","OBJECT_NAME":"STARLINK-4788","COUNTRY_CODE":"US","DECAY_DATE":null,"ECCENTRICITY":"0.00023900","TLE_LINE1":"1 53863U 22114AX  22303.00001157 -.00052424  00000-0 -37018-3 0  9990","CENTER_NAME":"EARTH","ARG_OF_PERICENTER":"17.4609","PERIOD":"91.529","NORAD_CAT_ID":"53863","REV_AT_EPOCH":"702","MEAN_ELEMENT_THEORY":"SGP4","LAUNCH_DATE":"2022-09-19","MEAN_MOTION":"15.73274377","REF_FRAME":"TEME","FILE":"3637828","OBJECT_TYPE":"PAYLOAD"},{"PERIAPSIS":"347.967","BSTAR":"-0.00019441000000","OBJECT_ID":"2022-114AY","INCLINATION":"53.2151","RCS_SIZE":"LARGE","CLASSIFICATION_TYPE":"U","TIME_SYSTEM":"UTC","MEAN_MOTION_DDOT":"0.0000000000000","OBJECT_NAME":"STARLINK-4779","MEAN_MOTION_DOT":"-0.00027905","COUNTRY_CODE":"US","DECAY_DATE":null,"TLE_LINE1":"1 53864U 22114AY  22303.00001157 -.00027905  00000-0 -19441-3 0  9997","ECCENTRICITY":"0.00023570","EPOCH":"2022-10-30T00:00:00.999648","MEAN_ANOMALY":"214.0684","TLE_LINE2":"2 53864  53.2151  56.0672 0002357  21.1126 214.0684 15.73272718  7028","APOAPSIS":"351.139","GP_ID":"216454165","ELEMENT_SET_NO":"999","RA_OF_ASC_NODE":"56.0672","SEMIMAJOR_AXIS":"6727.688","EPHEMERIS_TYPE":"0","SITE":"AFETR","MEAN_MOTION":"15.73272718","LAUNCH_DATE":"2022-09-19","REF_FRAME":"TEME","FILE":"3637828","OBJECT_TYPE":"PAYLOAD","CENTER_NAME":"EARTH","ARG_OF_PERICENTER":"21.1126","PERIOD":"91.529","NORAD_CAT_ID":"53864","REV_AT_EPOCH":"702","MEAN_ELEMENT_THEORY":"SGP4"},{"COUNTRY_CODE":"US","DECAY_DATE":null,"ECCENTRICITY":"0.00021790","TLE_LINE1":"1 53865U 22114AZ  22303.00001157 -.00104777  00000-0 -74820-3 0  9993","MEAN_MOTION_DDOT":"0.0000000000000","MEAN_MOTION_DOT":"-0.00104777","OBJECT_NAME":"STARLINK-4785","CLASSIFICATION_TYPE":"U","TIME_SYSTEM":"UTC","BSTAR":"-0.00074820000000","OBJECT_ID":"2022-114AZ","PERIAPSIS":"348.017","RCS_SIZE":"LARGE","INCLINATION":"53.2153","EPHEMERIS_TYPE":"0","SITE":"AFETR","ELEMENT_SET_NO":"999","SEMIMAJOR_AXIS":"6727.618","RA_OF_ASC_NODE":"56.0680","GP_ID":"216454171","TLE_LINE2":"2 53865  53.2153  56.0680 0002179  25.9927 208.6267 15.73297391  7023","EPOCH":"2022-10-30T00:00:00.999648","MEAN_ANOMALY":"208.6267","APOAPSIS":"350.948","FILE":"3637828","OBJECT_TYPE":"PAYLOAD","REF_FRAME":"TEME","LAUNCH_DATE":"2022-09-19","MEAN_MOTION":"15.73297391","MEAN_ELEMENT_THEORY":"SGP4","NORAD_CAT_ID":"53865","REV_AT_EPOCH":"702","PERIOD":"91.528","CENTER_NAME":"EARTH","ARG_OF_PERICENTER":"25.9927"}];
